start=new Date('2022-10-09T00:00:00.000Z').valueOf();
sats=[{"APOAPSIS":"548.103","CLASSIFICATION_TYPE":"U","EPOCH":"2022-10-08T19:15:00.863712","MEAN_ELEMENT_THEORY":"SGP4","MEAN_MOTION":"15.06393465","TLE_LINE1":"1 47659U 21012AR  22281.80209333 -.00000037  00000-0  16402-4 0  9998","PERIOD":"95.593","ELEMENT_SET_NO":"999","SEMIMAJOR_AXIS":"6925.369","REV_AT_EPOCH":"9355","REF_FRAME":"TEME","MEAN_MOTION_DDOT":"0.0000000000000","FILE":"3596607","LAUNCH_DATE":"2021-02-16","ECCENTRICITY":"0.00012560","RCS_SIZE":"LARGE","CENTER_NAME":"EARTH","OBJECT_ID":"2021-012AR","MEAN_ANOMALY":"258.1460","EPHEMERIS_TYPE":"0","OBJECT_NAME":"STARLINK-2043","RA_OF_ASC_NODE":"153.6136","INCLINATION":"53.0531","COUNTRY_CODE":"US","MEAN_MOTION_DOT":"-0.00000037","ARG_OF_PERICENTER":"101.9669","DECAY_DATE":null,"OBJECT_TYPE":"PAYLOAD","GP_ID":"214505956","TIME_SYSTEM":"UTC","BSTAR":"0.00001640200000","TLE_LINE2":"2 47659  53.0531 153.6136 0001256 101.9669 258.1460 15.06393465 93551","NORAD_CAT_ID":"47659","PERIAPSIS":"546.364","SITE":"AFETR"},{"NORAD_CAT_ID":"47660","TLE_LINE2":"2 47660  53.0521 144.1492 0001409  96.1806 263.9343 15.06387961 93693","SITE":"AFETR","PERIAPSIS":"546.275","BSTAR":"-0.00007311100000","TIME_SYSTEM":"UTC","GP_ID":"214504703","INCLINATION":"53.0521","DECAY_DATE":null,"OBJECT_TYPE":"PAYLOAD","COUNTRY_CODE":"US","ARG_OF_PERICENTER":"96.1806","MEAN_MOTION_DOT":"-0.00001370","EPHEMERIS_TYPE":"0","RA_OF_ASC_NODE":"144.1492","OBJECT_NAME":"STARLINK-2044","ECCENTRICITY":"0.00014090","LAUNCH_DATE":"2021-02-16","CENTER_NAME":"EARTH","MEAN_ANOMALY":"263.9343","OBJECT_ID":"2021-012AS","RCS_SIZE":"LARGE","REF_FRAME":"TEME","MEAN_MOTION_DDOT":"0.0000000000000","SEMIMAJOR_AXIS":"6925.385","REV_AT_EPOCH":"9369","FILE":"3596607","TLE_LINE1":"1 47660U 21012AS  22281.82152287 -.00001370  00000-0 -73111-4 0  9999","MEAN_MOTION":"15.06387961","ELEMENT_SET_NO":"999","PERIOD":"95.593","APOAPSIS":"548.226","CLASSIFICATION_TYPE":"U","MEAN_ELEMENT_THEORY":"SGP4","EPOCH":"2022-10-08T19:42:59.575968"},{"FILE":"3596390","MEAN_MOTION_DDOT":"0.0000000000000","REF_FRAME":"TEME","REV_AT_EPOCH":"9209","SEMIMAJOR_AXIS":"6925.366","CENTER_NAME":"EARTH","OBJECT_ID":"2021-012AT","MEAN_ANOMALY":"294.8209","RCS_SIZE":"LARGE","ECCENTRICITY":"0.00016120","LAUNCH_DATE":"2021-02-16","MEAN_ELEMENT_THEORY":"SGP4","EPOCH":"2022-10-08T08:14:11.626368","CLASSIFICATION_TYPE":"U","APOAPSIS":"548.347","ELEMENT_SET_NO":"999","PERIOD":"95.592","TLE_LINE1":"1 47661U 21012AT  22281.34319012  .00000180  00000-0  30998-4 0  9990","MEAN_MOTION":"15.06394390","BSTAR":"0.00003099800000","TIME_SYSTEM":"UTC","GP_ID":"214475010","SITE":"AFETR","PERIAPSIS":"546.114","NORAD_CAT_ID":"47661","TLE_LINE2":"2 47661  53.0561 255.6716 0001612  65.2948 294.8209 15.06394390 92096","RA_OF_ASC_NODE":"255.6716","OBJECT_NAME":"STARLINK-2051","EPHEMERIS_TYPE":"0","OBJECT_TYPE":"PAYLOAD","DECAY_DATE":null,"MEAN_MOTION_DOT":"0.00000180","COUNTRY_CODE":"US","ARG_OF_PERICENTER":"65.2948","INCLINATION":"53.0561"},{"MEAN_ANOMALY":"291.0397","OBJECT_ID":"2021-012AU","CENTER_NAME":"EARTH","RCS_SIZE":"LARGE","ECCENTRICITY":"0.00014870","LAUNCH_DATE":"2021-02-16","FILE":"3596607","MEAN_MOTION_DDOT":"0.0000000000000","REF_FRAME":"TEME","REV_AT_EPOCH":"9216","SEMIMAJOR_AXIS":"6925.353","PERIOD":"95.592","ELEMENT_SET_NO":"999","TLE_LINE1":"1 47662U 21012AU  22281.65554851  .00001427  00000-0  11467-3 0  9991","MEAN_MOTION":"15.06398591","MEAN_ELEMENT_THEORY":"SGP4","EPOCH":"2022-10-08T15:43:59.391264","CLASSIFICATION_TYPE":"U","APOAPSIS":"548.248","SITE":"AFETR","PERIAPSIS":"546.188","NORAD_CAT_ID":"47662","TLE_LINE2":"2 47662  53.0531 254.2722 0001487  69.0751 291.0397 15.06398591 92162","TIME_SYSTEM":"UTC","BSTAR":"0.00011467000000","GP_ID":"214505706","DECAY_DATE":null,"OBJECT_TYPE":"PAYLOAD","COUNTRY_CODE":"US","MEAN_MOTION_DOT":"0.00001427","ARG_OF_PERICENTER":"69.0751","INCLINATION":"53.0531","RA_OF_ASC_NODE":"254.2722","OBJECT_NAME":"STARLINK-2052","EPHEMERIS_TYPE":"0"},{"RA_OF_ASC_NODE":"173.6868","OBJECT_NAME":"STARLINK-2053","EPHEMERIS_TYPE":"0","DECAY_DATE":null,"OBJECT_TYPE":"PAYLOAD","MEAN_MOTION_DOT":"-0.00001449","COUNTRY_CODE":"US","ARG_OF_PERICENTER":"94.9342","INCLINATION":"53.0538","TIME_SYSTEM":"UTC","BSTAR":"-0.00007840600000","GP_ID":"214479550","SITE":"AFETR","PERIAPSIS":"546.217","NORAD_CAT_ID":"47663","TLE_LINE2":"2 47663  53.0538 173.6868 0001497  94.9342 265.1818 15.06386825 92784","MEAN_ELEMENT_THEORY":"SGP4","EPOCH":"2022-10-08T20:26:43.776384","CLASSIFICATION_TYPE":"U","APOAPSIS":"548.291","PERIOD":"95.593","ELEMENT_SET_NO":"999","TLE_LINE1":"1 47663U 21012AV  22281.85189556 -.00001449  00000-0 -78406-4 0  9993","MEAN_MOTION":"15.06386825","FILE":"3596434","MEAN_MOTION_DDOT":"0.0000000000000","REF_FRAME":"TEME","REV_AT_EPOCH":"9278","SEMIMAJOR_AXIS":"6925.389","OBJECT_ID":"2021-012AV","CENTER_NAME":"EARTH","MEAN_ANOMALY":"265.1818","RCS_SIZE":"LARGE","ECCENTRICITY":"0.00014970","LAUNCH_DATE":"2021-02-16"},{"GP_ID":"214504204","TIME_SYSTEM":"UTC","BSTAR":"0.00003383000000","PERIAPSIS":"546.260","SITE":"AFETR","TLE_LINE2":"2 47664  53.0536 254.2692 0001380  72.6107 287.5033 15.06399146 92166","NORAD_CAT_ID":"47664","OBJECT_NAME":"STARLINK-2054","RA_OF_ASC_NODE":"254.2692","EPHEMERIS_TYPE":"0","COUNTRY_CODE":"US","MEAN_MOTION_DOT":"0.00000222","ARG_OF_PERICENTER":"72.6107","OBJECT_TYPE":"PAYLOAD","DECAY_DATE":null,"INCLINATION":"53.0536","FILE":"3596607","SEMIMAJOR_AXIS":"6925.351","REV_AT_EPOCH":"9216","REF_FRAME":"TEME","MEAN_MOTION_DDOT":"0.0000000000000","RCS_SIZE":"LARGE","OBJECT_ID":"2021-012AW","MEAN_ANOMALY":"287.5033","CENTER_NAME":"EARTH","LAUNCH_DATE":"2021-02-16","ECCENTRICITY":"0.00013800","EPOCH":"2022-10-08T15:45:21.028032","MEAN_ELEMENT_THEORY":"SGP4","APOAPSIS":"548.172","CLASSIFICATION_TYPE":"U","ELEMENT_SET_NO":"999","PERIOD":"95.592","MEAN_MOTION":"15.06399146","TLE_LINE1":"1 47664U 21012AW  22281.65649338  .00000222  00000-0  33830-4 0  9999"},{"RA_OF_ASC_NODE":"249.4049","OBJECT_NAME":"STARLINK-2056","EPHEMERIS_TYPE":"0","DECAY_DATE":null,"OBJECT_TYPE":"PAYLOAD","ARG_OF_PERICENTER":"74.0795","COUNTRY_CODE":"US","MEAN_MOTION_DOT":"0.00000287","INCLINATION":"53.0556","BSTAR":"0.00003817600000","TIME_SYSTEM":"UTC","GP_ID":"214504956","SITE":"AFETR","PERIAPSIS":"546.352","NORAD_CAT_ID":"47665","TLE_LINE2":"2 47665  53.0556 249.4049 0001249  74.0795 286.0332 15.06399039 92228","MEAN_ELEMENT_THEORY":"SGP4","EPOCH":"2022-10-08T15:16:49.551168","APOAPSIS":"548.081","CLASSIFICATION_TYPE":"U","ELEMENT_SET_NO":"999","PERIOD":"95.592","TLE_LINE1":"1 47665U 21012AX  22281.63668462  .00000287  00000-0  38176-4 0  9996","MEAN_MOTION":"15.06399039","FILE":"3596607","REF_FRAME":"TEME","MEAN_MOTION_DDOT":"0.0000000000000","SEMIMAJOR_AXIS":"6925.352","REV_AT_EPOCH":"9222","CENTER_NAME":"EARTH","OBJECT_ID":"2021-012AX","MEAN_ANOMALY":"286.0332","RCS_SIZE":"LARGE","ECCENTRICITY":"0.00012490","LAUNCH_DATE":"2021-02-16"},{"FILE":"3596607","REF_FRAME":"TEME","MEAN_MOTION_DDOT":"0.0000000000000","SEMIMAJOR_AXIS":"6925.363","REV_AT_EPOCH":"9222","OBJECT_ID":"2021-012AY","MEAN_ANOMALY":"292.1643","CENTER_NAME":"EARTH","RCS_SIZE":"LARGE","ECCENTRICITY":"0.00016420","LAUNCH_DATE":"2021-02-16","MEAN_ELEMENT_THEORY":"SGP4","EPOCH":"2022-10-08T15:11:34.743264","APOAPSIS":"548.365","CLASSIFICATION_TYPE":"U","ELEMENT_SET_NO":"999","PERIOD":"95.592","TLE_LINE1":"1 47666U 21012AY  22281.63304101  .00000411  00000-0  46492-4 0  9993","MEAN_MOTION":"15.06395230","TIME_SYSTEM":"UTC","BSTAR":"0.00004649200000","GP_ID":"214505207","SITE":"AFETR","PERIAPSIS":"546.091","NORAD_CAT_ID":"47666","TLE_LINE2":"2 47666  53.0537 249.7191 0001642  67.9520 292.1643 15.06395230 92225","RA_OF_ASC_NODE":"249.7191","OBJECT_NAME":"STARLINK-2057","EPHEMERIS_TYPE":"0","DECAY_DATE":null,"OBJECT_TYPE":"PAYLOAD","COUNTRY_CODE":"US","ARG_OF_PERICENTER":"67.9520","MEAN_MOTION_DOT":"0.00000411","INCLINATION":"53.0537"},{"TLE_LINE2":"2 47667  53.0552 274.1249 0001929  59.7291 300.3888 15.06389372 91863","NORAD_CAT_ID":"47667","PERIAPSIS":"545.910","SITE":"AFETR","GP_ID":"214505957","TIME_SYSTEM":"UTC","BSTAR":"-0.00004303200000","INCLINATION":"53.0552","MEAN_MOTION_DOT":"-0.00000922","COUNTRY_CODE":"US","ARG_OF_PERICENTER":"59.7291","DECAY_DATE":null,"OBJECT_TYPE":"PAYLOAD","EPHEMERIS_TYPE":"0","OBJECT_NAME":"STARLINK-2058","RA_OF_ASC_NODE":"274.1249","LAUNCH_DATE":"2021-02-16","ECCENTRICITY":"0.00019290","RCS_SIZE":"LARGE","CENTER_NAME":"EARTH","MEAN_ANOMALY":"300.3888","OBJECT_ID":"2021-012AZ","REV_AT_EPOCH":"9186","SEMIMAJOR_AXIS":"6925.381","MEAN_MOTION_DDOT":"0.0000000000000","REF_FRAME":"TEME","FILE":"3596607","MEAN_MOTION":"15.06389372","TLE_LINE1":"1 47667U 21012AZ  22281.68783274 -.00000922  00000-0 -43032-4 0  9997","ELEMENT_SET_NO":"999","PERIOD":"95.593","CLASSIFICATION_TYPE":"U","APOAPSIS":"548.582","EPOCH":"2022-10-08T16:30:28.748736","MEAN_ELEMENT_THEORY":"SGP4"},{"BSTAR":"0.00025789000000","TIME_SYSTEM":"UTC","GP_ID":"214473761","NORAD_CAT_ID":"47668","TLE_LINE2":"2 47668  53.0536 255.7106 0001591  66.0234 294.0922 15.06405770 92114","SITE":"AFETR","PERIAPSIS":"546.094","EPHEMERIS_TYPE":"0","RA_OF_ASC_NODE":"255.7106","OBJECT_NAME":"STARLINK-2059","INCLINATION":"53.0536","DECAY_DATE":null,"OBJECT_TYPE":"PAYLOAD","COUNTRY_CODE":"US","ARG_OF_PERICENTER":"66.0234","MEAN_MOTION_DOT":"0.00003562","MEAN_MOTION_DDOT":"0.0000000000000","REF_FRAME":"TEME","REV_AT_EPOCH":"9211","SEMIMAJOR_AXIS":"6925.331","FILE":"3596390","ECCENTRICITY":"0.00015910","LAUNCH_DATE":"2021-02-16","CENTER_NAME":"EARTH","OBJECT_ID":"2021-012BA","MEAN_ANOMALY":"294.0922","RCS_SIZE":"LARGE","CLASSIFICATION_TYPE":"U","APOAPSIS":"548.298","MEAN_ELEMENT_THEORY":"SGP4","EPOCH":"2022-10-08T07:58:15.800448","TLE_LINE1":"1 47668U 21012BA  22281.33212732  .00003562  00000-0  25789-3 0  9995","MEAN_MOTION":"15.06405770","PERIOD":"95.592","ELEMENT_SET_NO":"999"}];
